H1 CPF 01  gfz 2022 03 12 13  5712 terrasarx 
H2 0702601  6201 31698    2022 03 12 12 59 42 2022 03 17 00 00 42   120 1 1  0 0 0
H9
10 0 59650  63342.000000  0    6490790.476   1005967.917  -2087586.487
10 0 59650  63462.000000  0    6729637.453    857748.830  -1209920.523
10 0 59650  63582.000000  0    6848239.651    691426.589   -310982.056
10 0 59650  63702.000000  0    6844174.956    512022.216    593427.038
10 0 59650  63822.000000  0    6717274.613    324814.038   1487389.256
10 0 59650  63942.000000  0    6469634.452    135204.041   2355160.713
10 0 59650  64062.000000  0    6105578.543    -51417.510   3181457.964
10 0 59650  64182.000000  0    5631578.225   -229806.997   3951734.567
10 0 59650  64302.000000  0    5056128.451   -394996.474   4652441.231
10 0 59650  64422.000000  0    4389587.128   -542415.573   5271267.108
10 0 59650  64542.000000  0    3643976.894   -668002.906   5797355.249
10 0 59650  64662.000000  0    2832759.079   -768303.126   6221488.590
10 0 59650  64782.000000  0    1970583.585   -840549.269   6536245.991
10 0 59650  64902.000000  0    1073020.027   -882728.402   6736126.929
10 0 59650  65022.000000  0     156272.636   -893629.510   6817642.393
10 0 59650  65142.000000  0    -763113.141   -872872.319   6779370.609
10 0 59650  65262.000000  0   -1668548.108   -820917.378   6621979.422
10 0 59650  65382.000000  0   -2543697.068   -739056.281   6348214.983
10 0 59650  65502.000000  0   -3372772.198   -629382.671   5962857.555
10 0 59650  65622.000000  0   -4140819.767   -494744.385   5472644.605
10 0 59650  65742.000000  0   -4833995.087   -338678.056   4886159.649
10 0 59650  65862.000000  0   -5439819.309   -165326.741   4213687.051
10 0 59650  65982.000000  0   -5947412.681     20657.696   3467035.308
10 0 59650  66102.000000  0   -6347698.932    214225.644   2659332.003
10 0 59650  66222.000000  0   -6633578.161    410052.231   1804792.972
10 0 59650  66342.000000  0   -6800062.120    602667.771    918468.171
10 0 59650  66462.000000  0   -6844368.185    786592.735     15969.732
10 0 59650  66582.000000  0   -6765968.597    956474.480   -886812.094
10 0 59650  66702.000000  0   -6566593.012   1107221.718  -1773997.897
10 0 59650  66822.000000  0   -6250186.703   1234133.021  -2630005.194
10 0 59650  66942.000000  0   -5822826.413   1333017.831  -3439829.547
10 0 59650  67062.000000  0   -5292590.961   1400304.551  -4189311.969
10 0 59650  67182.000000  0   -4669395.404   1433134.073  -4865385.071
10 0 59650  67302.000000  0   -3964793.218   1429437.016  -5456295.855
10 0 59650  67422.000000  0   -3191751.994   1387993.026  -5951801.082
10 0 59650  67542.000000  0   -2364408.294   1308470.776  -6343334.494
10 0 59650  67662.000000  0   -1497805.634   1191448.963  -6624143.842
10 0 59650  67782.000000  0    -607620.640   1038418.149  -6789395.364
10 0 59650  67902.000000  0     290115.764    851762.828  -6836246.870
10 0 59650  68022.000000  0    1179298.918    634725.275  -6763891.957
10 0 59650  68142.000000  0    2044033.423    391350.274  -6573574.563
10 0 59650  68262.000000  0    2868911.318    126411.886  -6268569.202
10 0 59650  68382.000000  0    3639282.379   -154676.124  -5854130.816
10 0 59650  68502.000000  0    4341511.663   -445966.325  -5337412.295
10 0 59650  68622.000000  0    4963221.810   -741097.341  -4727353.202
10 0 59650  68742.000000  0    5493517.863  -1033426.521  -4034536.693
10 0 59650  68862.000000  0    5923186.952  -1316172.407  -3271015.454
10 0 59650  68982.000000  0    6244869.402  -1582564.627  -2450109.443
10 0 59650  69102.000000  0    6453197.139  -1825998.029  -1586177.595
10 0 59650  69222.000000  0    6544894.803  -2040187.058   -694366.706
10 0 59650  69342.000000  0    6518840.679  -2219316.306    209657.216
10 0 59650  69462.000000  0    6376085.374  -2358184.048   1109990.590
10 0 59650  69582.000000  0    6119826.392  -2452333.875   1990780.775
10 0 59650  69702.000000  0    5755338.774  -2498172.030   2836514.390
10 0 59650  69822.000000  0    5289864.221  -2493066.437   3632299.153
10 0 59650  69942.000000  0    4732460.088  -2435424.815   4364131.896
10 0 59650  70062.000000  0    4093816.166  -2324750.442   5019146.985
10 0 59650  70182.000000  0    3386042.281  -2161675.506   5585844.350
10 0 59650  70302.000000  0    2622428.888  -1947969.850   6054289.241
10 0 59650  70422.000000  0    1817190.793  -1686525.326   6416280.933
10 0 59650  70542.000000  0     985197.856  -1381317.439   6665490.471
10 0 59650  70662.000000  0     141697.306  -1037344.180   6797565.512
10 0 59650  70782.000000  0    -697966.423   -660542.971   6810200.831
10 0 59650  70902.000000  0   -1518629.639   -257688.023   6703175.267
10 0 59650  71022.000000  0   -2305581.895    163731.119   6478355.355
10 0 59650  71142.000000  0   -3044828.797    595648.090   6139665.328
10 0 59650  71262.000000  0   -3723341.839   1029572.856   5693023.617
10 0 59650  71382.000000  0   -4329291.868   1456757.043   5146245.958
10 0 59650  71502.000000  0   -4852261.526   1868369.094   4508914.590
10 0 59650  71622.000000  0   -5283431.904   2255676.394   3792214.928
10 0 59650  71742.000000  0   -5615739.023   2610229.632   3008741.883
10 0 59650  71862.000000  0   -5843997.133   2924045.682   2172279.543
10 0 59650  71982.000000  0   -5964986.794   3189785.058   1297556.879
10 0 59650  72102.000000  0   -5977504.057   3400919.713    399982.206
10 0 59650  72222.000000  0   -5882367.336   3551885.332   -504636.266
10 0 59650  72342.000000  0   -5682384.154   3638214.853  -1400377.304
10 0 59650  72462.000000  0   -5382278.527   3656650.693  -2271496.250
10 0 59650  72582.000000  0   -4988577.830   3605231.030  -3102710.326
10 0 59650  72702.000000  0   -4509465.167   3483349.136  -3879471.439
10 0 59650  72822.000000  0   -3954600.859   3291784.223  -4588221.230
10 0 59650  72942.000000  0   -3334919.687   3032704.409  -5216624.108
10 0 59650  73062.000000  0   -2662408.609   2709641.963  -5753773.830
10 0 59650  73182.000000  0   -1949871.396   2327442.993  -6190373.655
10 0 59650  73302.000000  0   -1210681.734   1892191.092  -6518886.619
10 0 59650  73422.000000  0    -458533.220   1411107.984  -6733653.198
10 0 59650  73542.000000  0     292810.354    892433.223  -6830978.717
10 0 59650  73662.000000  0    1029760.180    345285.207  -6809190.206
10 0 59650  73782.000000  0    1739143.448   -220495.930  -6668663.461
10 0 59650  73902.000000  0    2408433.359   -794521.272  -6411815.802
10 0 59650  74022.000000  0    3025965.834  -1366038.764  -6043069.510
10 0 59650  74142.000000  0    3581140.726  -1924129.316  -5568783.253
10 0 59650  74262.000000  0    4064605.120  -2457911.458  -4997154.375
10 0 59650  74382.000000  0    4468415.593  -2956752.737  -4338087.903
10 0 59650  74502.000000  0    4786173.929  -3410481.415  -3603034.950
10 0 59650  74622.000000  0    5013136.018  -3809594.634  -2804803.101
10 0 59650  74742.000000  0    5146291.081  -4145459.709  -1957338.963
10 0 59650  74862.000000  0    5184407.200  -4410502.410  -1075486.263
10 0 59650  74982.000000  0    5128042.305  -4598378.514   -174723.975
10 0 59650  75102.000000  0    4979518.451  -4704123.726    729110.856
10 0 59650  75222.000000  0    4742859.996  -4724276.417   1620109.897
10 0 59650  75342.000000  0    4423696.740  -4656969.972   2482582.603
10 0 59650  75462.000000  0    4029135.446  -4501992.911   3301340.594
10 0 59650  75582.000000  0    3567602.740  -4260815.579   4061972.151
10 0 59650  75702.000000  0    3048662.517  -3936582.350   4751100.758
10 0 59650  75822.000000  0    2482813.914  -3534069.121   5356621.757
10 0 59650  75942.000000  0    1881275.189  -3059609.242   5867913.791
10 0 59650  76062.000000  0    1255757.041  -2520988.025   6276021.616
10 0 59650  76182.000000  0     618231.960  -1927310.040   6573806.612
10 0 59650  76302.000000  0     -19296.445  -1288841.870   6756065.346
10 0 59650  76422.000000  0    -645019.034   -616832.398   6819615.184
10 0 59650  76542.000000  0   -1247538.761     76686.510   6763346.087
10 0 59650  76662.000000  0   -1816077.495    779115.021   6588238.744
10 0 59650  76782.000000  0   -2340668.294   1477513.493   6297348.525
10 0 59650  76902.000000  0   -2812330.671   2158839.870   5895755.560
10 0 59650  77022.000000  0   -3223225.916   2810193.251   5390481.958
10 0 59650  77142.000000  0   -3566790.900   3419060.046   4790375.495
10 0 59650  77262.000000  0   -3837847.327   3973557.412   4105960.427
10 0 59650  77382.000000  0   -4032683.687   4462670.235   3349257.364
10 0 59650  77502.000000  0   -4149108.139   4876476.129   2533573.790
10 0 59650  77622.000000  0   -4186470.134   5206352.014   1673267.852
10 0 59650  77742.000000  0   -4145650.491   5445157.319    783491.689
10 0 59650  77862.000000  0   -4029021.194   5587390.008   -120081.247
10 0 59650  77982.000000  0   -3840374.492   5629311.691  -1021541.387
10 0 59650  78102.000000  0   -3584821.688   5569035.913  -1905033.949
10 0 59650  78222.000000  0   -3268665.076   5406577.611  -2755046.476
10 0 59650  78342.000000  0   -2899246.819   5143865.073  -3556686.714
10 0 59650  78462.000000  0   -2484780.568   4784712.105  -4295945.855
10 0 59650  78582.000000  0   -2034169.038   4334753.651  -4959941.123
10 0 59650  78702.000000  0   -1556813.124   3801348.199  -5537133.191
10 0 59650  78822.000000  0   -1062417.094   3193449.788  -6017518.848
10 0 59650  78942.000000  0    -560792.620   2521450.107  -6392794.970
10 0 59650  79062.000000  0     -61666.362   1796995.816  -6656490.017
10 0 59650  79182.000000  0     425504.146   1032785.940  -6804064.760
10 0 59650  79302.000000  0     891705.098    242351.564  -6832982.719
10 0 59650  79422.000000  0    1328529.594   -560179.570  -6742749.082
10 0 59650  79542.000000  0    1728325.109  -1360330.179  -6534916.674
10 0 59650  79662.000000  0    2084324.281  -2143527.376  -6213061.923
10 0 59650  79782.000000  0    2390758.401  -2895361.524  -5782730.562
99
